{"type":"FeatureCollection","features":[{"type":"Feature","properties":{"name":"South Carolina","role":"state"},"geometry":{"type":"Polygon","coordinates":[[[-82.21622,35.19604],[-82.19548,35.19495],[-82.18551,35.19436],[-82.17687,35.19379],[-82.16768,35.1937],[-81.96932,35.18722],[-81.87443,35.18411],[-81.85783,35.18349],[-81.76807,35.18013],[-81.49426,35.16988],[-81.4934,35.16995],[-81.46141,35.16866],[-81.4524,35.16829],[-81.36669,35.16489],[-81.3666,35.16489],[-81.32802,35.1634],[-81.2692,35.16114],[-81.24169,35.16008],[-81.23936,35.15997],[-81.09022,35.15263],[-81.04341,35.14839],[-81.04276,35.14604],[-81.03255,35.1091],[-81.03616,35.10321],[-81.04652,35.10062],[-81.05208,35.09628],[-81.05724,35.08613],[-81.05803,35.07319],[-81.05746,35.06198],[-81.04149,35.0447],[-80.95787,35.09264],[-80.93495,35.10741],[-80.90655,35.07676],[-80.90642,35.07661],[-80.84046,35.00157],[-80.80678,34.96325],[-80.80646,34.96289],[-80.78204,34.93578],[-80.79675,34.82528],[-80.77771,34.8197],[-80.77179,34.81965],[-80.6466,34.81859],[-80.64466,34.81857],[-80.62608,34.81822],[-80.62599,34.81824],[-80.62122,34.81817],[-80.56167,34.81748],[-80.56166,34.81748],[-80.48568,34.81673],[-80.45166,34.8164],[-80.44877,34.81633],[-80.43484,34.81597],[-80.4259,34.81581],[-80.41959,34.81558],[-80.41843,34.81562],[-80.41701,34.81551],[-80.39987,34.81513],[-80.32041,34.81381],[-80.09899,34.81015],[-80.09802,34.81015],[-80.07722,34.80972],[-80.07291,34.80974],[-80.04276,34.8091],[-80.02746,34.80873],[-79.92762,34.80656],[-79.77361,34.80593],[-79.77283,34.80595],[-79.74492,34.80569],[-79.74412,34.80565],[-79.69295,34.80497],[-79.6902,34.80494],[-79.68809,34.8049],[-79.63422,34.77101],[-79.63158,34.76884],[-79.56169,34.712],[-79.55445,34.70636],[-79.52027,34.67833],[-79.51904,34.67732],[-79.4902,34.65382],[-79.4793,34.64464],[-79.4716,34.6372],[-79.46872,34.63532],[-79.46175,34.63043],[-79.46132,34.63013],[-79.45977,34.62903],[-79.45003,34.62104],[-79.35832,34.54536],[-79.33133,34.52187],[-79.32485,34.51628],[-79.32325,34.51463],[-79.19898,34.4067],[-79.19204,34.40104],[-79.19074,34.39975],[-79.15148,34.36675],[-79.14324,34.35982],[-79.07117,34.29924],[-78.71221,33.99673],[-78.71014,33.99469],[-78.6505,33.94403],[-78.54109,33.85111],[-78.55394,33.84783],[-78.58484,33.84428],[-78.67226,33.81759],[-78.71412,33.80014],[-78.77274,33.76851],[-78.81293,33.74347],[-78.86293,33.70565],[-78.93808,33.63983],[-79.00211,33.57211],[-79.00736,33.56656],[-79.02852,33.53337],[-79.04112,33.52377],[-79.08459,33.48367],[-79.10136,33.46102],[-79.13544,33.40387],[-79.1475,33.37824],[-79.15203,33.35092],[-79.15843,33.33281],[-79.16233,33.32725],[-79.18032,33.25414],[-79.18056,33.23795],[-79.17239,33.20658],[-79.18787,33.17371],[-79.19563,33.16602],[-79.21545,33.15557],[-79.23826,33.13705],[-79.24609,33.12486],[-79.29075,33.11005],[-79.29159,33.10977],[-79.32991,33.08999],[-79.33717,33.0723],[-79.33535,33.06536],[-79.33931,33.05034],[-79.35996,33.00667],[-79.40371,33.0039],[-79.41652,33.00682],[-79.42345,33.01508],[-79.46105,33.00764],[-79.4835,33.00126],[-79.48873,33.01583],[-79.50692,33.03281],[-79.52245,33.03535],[-79.55756,33.02127],[-79.58073,33.00645],[-79.58659,32.99133],[-79.60102,32.97928],[-79.60662,32.97225],[-79.61761,32.95273],[-79.61772,32.94487],[-79.61293,32.93482],[-79.60619,32.92595],[-79.5859,32.92646],[-79.58169,32.93134],[-79.57495,32.93453],[-79.57261,32.93388],[-79.56976,32.92669],[-79.57601,32.90624],[-79.63115,32.88861],[-79.65543,32.87271],[-79.69514,32.8504],[-79.69948,32.84],[-79.70296,32.83578],[-79.71988,32.8258],[-79.71676,32.81363],[-79.72639,32.806],[-79.81102,32.77696],[-79.81824,32.76635],[-79.84035,32.75682],[-79.84853,32.75525],[-79.86674,32.75742],[-79.87223,32.75213],[-79.8736,32.74566],[-79.86835,32.73485],[-79.87034,32.72778],[-79.88803,32.69518],[-79.88496,32.6844],[-79.91568,32.66492],[-79.96847,32.63973],[-79.97525,32.63954],[-79.98692,32.62639],[-79.99175,32.61639],[-79.99937,32.61185],[-80.0105,32.60885],[-80.03728,32.61024],[-80.07704,32.60332],[-80.12137,32.59052],[-80.14841,32.57848],[-80.16729,32.55989],[-80.17176,32.54612],[-80.1884,32.5536],[-80.19368,32.55421],[-80.20523,32.55555],[-80.24636,32.53111],[-80.24957,32.52958],[-80.27768,32.51616],[-80.33244,32.4781],[-80.33835,32.47873],[-80.34388,32.49079],[-80.36396,32.4961],[-80.38072,32.48636],[-80.38683,32.47881],[-80.39256,32.47533],[-80.41349,32.47067],[-80.41594,32.47207],[-80.4179,32.47608],[-80.4185,32.49089],[-80.42345,32.49799],[-80.43941,32.50347],[-80.45208,32.49729],[-80.46571,32.4953],[-80.47207,32.49696],[-80.47691,32.48539],[-80.48025,32.47741],[-80.48462,32.46098],[-80.48016,32.44705],[-80.46759,32.42526],[-80.44607,32.42372],[-80.43296,32.41066],[-80.42994,32.40178],[-80.42929,32.38967],[-80.4343,32.37519],[-80.44545,32.35034],[-80.45681,32.33688],[-80.45519,32.32646],[-80.46634,32.31917],[-80.51787,32.2988],[-80.53943,32.28702],[-80.54569,32.28208],[-80.5711,32.27328],[-80.59639,32.27355],[-80.61829,32.26018],[-80.63886,32.25562],[-80.65863,32.24864],[-80.66917,32.21678],[-80.68886,32.20097],[-80.72146,32.16043],[-80.74909,32.14014],[-80.79,32.12249],[-80.8125,32.10975],[-80.82153,32.10859],[-80.82839,32.11322],[-80.83153,32.11271],[-80.84443,32.10971],[-80.85873,32.09958],[-80.87811,32.07979],[-80.90538,32.05194],[-80.89234,32.04376],[-80.88552,32.0346],[-81.00411,32.07223],[-81.04283,32.08451],[-81.06185,32.08794],[-81.11333,32.11321],[-81.11723,32.1176],[-81.12203,32.1618],[-81.12546,32.22713],[-81.12803,32.2763],[-81.12033,32.2858],[-81.12233,32.30539],[-81.13433,32.34169],[-81.14093,32.34939],[-81.16803,32.36839],[-81.19903,32.46729],[-81.27541,32.53946],[-81.28678,32.54483],[-81.31825,32.55972],[-81.32875,32.56123],[-81.34816,32.56929],[-81.38926,32.59539],[-81.38934,32.59544],[-81.41191,32.61841],[-81.41866,32.62939],[-81.41843,32.6347],[-81.41476,32.63744],[-81.40513,32.74496],[-81.40495,32.74703],[-81.42377,32.81051],[-81.49983,32.96382],[-81.49474,32.979],[-81.4915,32.99857],[-81.49664,33.01022],[-81.51169,33.02451],[-81.54183,33.04565],[-81.61576,33.09253],[-81.62029,33.09541],[-81.69693,33.11655],[-81.77225,33.18012],[-81.85197,33.24741],[-81.85214,33.24754],[-81.90274,33.33124],[-81.91257,33.40881],[-81.95793,33.46863],[-81.96704,33.48064],[-82.00714,33.52284],[-82.00764,33.52334],[-82.01429,33.53031],[-82.02824,33.54493],[-82.04633,33.56383],[-82.06904,33.57538],[-82.09882,33.58636],[-82.11663,33.58972],[-82.12484,33.59127],[-82.12908,33.58993],[-82.13505,33.59104],[-82.17985,33.61595],[-82.19658,33.63058],[-82.21865,33.6863],[-82.24747,33.75259],[-82.30146,33.80186],[-82.32448,33.82003],[-82.40388,33.86548],[-82.40835,33.86632],[-82.4228,33.86375],[-82.42916,33.86584],[-82.56448,33.95574],[-82.56458,33.95581],[-82.59708,34.01239],[-82.6407,34.08834],[-82.64125,34.08891],[-82.65217,34.0997],[-82.65402,34.10035],[-82.65856,34.10312],[-82.65908,34.10354],[-82.66811,34.12016],[-82.67732,34.13166],[-82.70414,34.14101],[-82.71751,34.1505],[-82.73188,34.17836],[-82.74149,34.20871],[-82.74192,34.21006],[-82.74442,34.22491],[-82.74346,34.22734],[-82.74198,34.2302],[-82.75503,34.27607],[-82.76608,34.29351],[-82.84865,34.42384],[-82.87486,34.46889],[-82.87383,34.47151],[-82.88286,34.479],[-82.90266,34.4859],[-82.93907,34.4862],[-82.97957,34.4827],[-82.99222,34.4792],[-82.99267,34.47907],[-82.99528,34.47455],[-83.00685,34.47438],[-83.03471,34.48349],[-83.05216,34.49306],[-83.07275,34.50435],[-83.08719,34.51594],[-83.10687,34.53405],[-83.17028,34.5924],[-83.17098,34.5988],[-83.16752,34.60042],[-83.24068,34.62431],[-83.24067,34.62451],[-83.29168,34.6534],[-83.33787,34.68768],[-83.33819,34.68792],[-83.35129,34.7017],[-83.35098,34.71324],[-83.35139,34.71446],[-83.35249,34.71599],[-83.35242,34.71611],[-83.33913,34.74127],[-83.32406,34.78869],[-83.28315,34.82133],[-83.26729,34.83275],[-83.24296,34.87775],[-83.14326,34.92476],[-83.10854,35.00077],[-83.00845,35.02697],[-82.8975,35.05602],[-82.78113,35.08458],[-82.78106,35.08449],[-82.77741,35.07688],[-82.77912,35.07367],[-82.78055,35.06904],[-82.78197,35.06682],[-82.76446,35.06818],[-82.68674,35.11979],[-82.6865,35.12182],[-82.58226,35.14227],[-82.58013,35.14196],[-82.57441,35.14422],[-82.53653,35.15914],[-82.5358,35.1587],[-82.51728,35.16264],[-82.51691,35.16303],[-82.47614,35.17549],[-82.38403,35.21054],[-82.35243,35.2066],[-82.28845,35.19861],[-82.25751,35.19864],[-82.23091,35.19678],[-82.23052,35.19676],[-82.21622,35.19604]]]}},{"type":"Feature","properties":{"name":"Georgia","role":"mask"},"geometry":{"type":"Polygon","coordinates":[[[-84.81048,34.98761],[-84.80918,34.98757],[-84.80813,34.98759],[-84.77585,34.9878],[-84.73102,34.98809],[-84.72743,34.98802],[-84.62148,34.98833],[-84.50989,34.98801],[-84.50905,34.98803],[-84.3949,34.98803],[-84.39393,34.98807],[-84.32187,34.98841],[-84.12955,34.9875],[-84.12945,34.9875],[-84.02995,34.98732],[-84.02136,34.98743],[-84.00546,34.98744],[-83.93665,34.98748],[-83.93641,34.98748],[-83.67362,34.98711],[-83.62019,34.99209],[-83.54938,34.99249],[-83.48306,34.99374],[-83.10871,35.00077],[-83.10854,35.00077],[-83.14326,34.92476],[-83.24296,34.87775],[-83.26729,34.83275],[-83.28315,34.82133],[-83.32406,34.78869],[-83.33913,34.74127],[-83.35242,34.71611],[-83.35249,34.71599],[-83.35139,34.71446],[-83.35098,34.71324],[-83.35129,34.7017],[-83.33819,34.68792],[-83.33787,34.68768],[-83.29168,34.6534],[-83.24067,34.62451],[-83.24068,34.62431],[-83.16752,34.60042],[-83.17098,34.5988],[-83.17028,34.5924],[-83.10687,34.53405],[-83.08719,34.51594],[-83.07275,34.50435],[-83.05216,34.49306],[-83.03471,34.48349],[-83.00685,34.47438],[-82.99528,34.47455],[-82.99267,34.47907],[-82.99222,34.4792],[-82.97957,34.4827],[-82.93907,34.4862],[-82.90266,34.4859],[-82.88286,34.479],[-82.87383,34.47151],[-82.87486,34.46889],[-82.84865,34.42384],[-82.76608,34.29351],[-82.75503,34.27607],[-82.74198,34.2302],[-82.74346,34.22734],[-82.74442,34.22491],[-82.74192,34.21006],[-82.74149,34.20871],[-82.73188,34.17836],[-82.71751,34.1505],[-82.70414,34.14101],[-82.67732,34.13166],[-82.66811,34.12016],[-82.65908,34.10354],[-82.65856,34.10312],[-82.65402,34.10035],[-82.65217,34.0997],[-82.64125,34.08891],[-82.6407,34.08834],[-82.59708,34.01239],[-82.56458,33.95581],[-82.56448,33.95574],[-82.42916,33.86584],[-82.4228,33.86375],[-82.40835,33.86632],[-82.40388,33.86548],[-82.32448,33.82003],[-82.30146,33.80186],[-82.24747,33.75259],[-82.21865,33.6863],[-82.19658,33.63058],[-82.17985,33.61595],[-82.13505,33.59104],[-82.12908,33.58993],[-82.12484,33.59127],[-82.11663,33.58972],[-82.09882,33.58636],[-82.06904,33.57538],[-82.04633,33.56383],[-82.02824,33.54493],[-82.01429,33.53031],[-82.00764,33.52334],[-82.00714,33.52284],[-81.96704,33.48064],[-81.95793,33.46863],[-81.91257,33.40881],[-81.90274,33.33124],[-81.85214,33.24754],[-81.85197,33.24741],[-81.77225,33.18012],[-81.69693,33.11655],[-81.62029,33.09541],[-81.61576,33.09253],[-81.54183,33.04565],[-81.51169,33.02451],[-81.49664,33.01022],[-81.4915,32.99857],[-81.49474,32.979],[-81.49983,32.96382],[-81.42377,32.81051],[-81.40495,32.74703],[-81.40513,32.74496],[-81.41476,32.63744],[-81.41843,32.6347],[-81.41866,32.62939],[-81.41191,32.61841],[-81.38934,32.59544],[-81.38926,32.59539],[-81.34816,32.56929],[-81.32875,32.56123],[-81.31825,32.55972],[-81.28678,32.54483],[-81.27541,32.53946],[-81.19903,32.46729],[-81.16803,32.36839],[-81.14093,32.34939],[-81.13433,32.34169],[-81.12233,32.30539],[-81.12033,32.2858],[-81.12803,32.2763],[-81.12546,32.22713],[-81.12203,32.1618],[-81.11723,32.1176],[-81.11333,32.11321],[-81.06185,32.08794],[-81.04283,32.08451],[-81.00411,32.07223],[-80.88552,32.0346],[-80.85911,32.02369],[-80.85228,32.02668],[-80.84313,32.02423],[-80.84055,32.01131],[-80.84191,32.00264],[-80.84844,31.98828],[-80.86281,31.96935],[-80.88281,31.95907],[-80.89769,31.94907],[-80.91121,31.94377],[-80.9291,31.94496],[-80.93028,31.9567],[-80.94849,31.95723],[-80.97239,31.94127],[-80.97571,31.9236],[-80.96849,31.91582],[-80.95447,31.91177],[-80.94136,31.91298],[-80.93451,31.90918],[-80.94729,31.89621],[-80.97143,31.87794],[-80.99269,31.85764],[-81.00032,31.85674],[-81.01448,31.86747],[-81.04155,31.8762],[-81.06525,31.8771],[-81.0586,31.85781],[-81.05907,31.85011],[-81.06279,31.84474],[-81.07618,31.83613],[-81.07581,31.82903],[-81.05718,31.82269],[-81.05095,31.82238],[-81.04794,31.82488],[-81.03981,31.823],[-81.03696,31.81956],[-81.03687,31.81272],[-81.04735,31.80287],[-81.06812,31.76873],[-81.07706,31.76126],[-81.0974,31.75313],[-81.13063,31.72269],[-81.13845,31.72093],[-81.15469,31.7262],[-81.16067,31.72814],[-81.19278,31.73325],[-81.19839,31.72607],[-81.20357,31.71945],[-81.1863,31.70151],[-81.16108,31.6914],[-81.15462,31.69387],[-81.15189,31.69841],[-81.14937,31.6993],[-81.13939,31.69992],[-81.13114,31.69577],[-81.13561,31.68349],[-81.13641,31.67483],[-81.13173,31.65448],[-81.13349,31.62335],[-81.14997,31.59348],[-81.16036,31.57044],[-81.17308,31.55591],[-81.17882,31.55553],[-81.18325,31.56006],[-81.18611,31.56803],[-81.19438,31.5681],[-81.20431,31.56818],[-81.21454,31.5576],[-81.2407,31.55231],[-81.25422,31.55594],[-81.26008,31.54828],[-81.2639,31.53258],[-81.26344,31.53093],[-81.25881,31.52906],[-81.21795,31.52728],[-81.21352,31.52815],[-81.19952,31.5376],[-81.19302,31.53583],[-81.18159,31.5277],[-81.17831,31.52241],[-81.17725,31.51707],[-81.18964,31.50359],[-81.20488,31.47312],[-81.24691,31.42278],[-81.25862,31.40442],[-81.2788,31.36721],[-81.27934,31.35113],[-81.28292,31.32649],[-81.27451,31.32624],[-81.26803,31.32422],[-81.25482,31.31545],[-81.26096,31.30391],[-81.26991,31.29449],[-81.27469,31.28945],[-81.27686,31.25473],[-81.28284,31.24433],[-81.28914,31.22549],[-81.2884,31.21107],[-81.29336,31.20633],[-81.30496,31.20617],[-81.31418,31.20794],[-81.33903,31.18692],[-81.35488,31.1672],[-81.36079,31.1559],[-81.35935,31.14917],[-81.36824,31.13653],[-81.38683,31.13321],[-81.39968,31.13411],[-81.4021,31.12538],[-81.40373,31.10712],[-81.40121,31.08614],[-81.40127,31.07278],[-81.41512,31.02672],[-81.42047,31.0167],[-81.42473,31.01368],[-81.43247,31.01299],[-81.43471,31.01464],[-81.43492,31.0178],[-81.44317,31.01666],[-81.45144,31.01552],[-81.4578,31.01026],[-81.45924,31.00569],[-81.4693,30.99603],[-81.49059,30.98495],[-81.49365,30.97753],[-81.48697,30.9696],[-81.47579,30.96598],[-81.47232,30.9699],[-81.46681,30.97091],[-81.45357,30.96557],[-81.44739,30.95673],[-81.42693,30.95661],[-81.42011,30.97408],[-81.41582,30.97719],[-81.40848,30.97772],[-81.40341,30.95791],[-81.40515,30.9082],[-81.42858,30.83634],[-81.43084,30.83116],[-81.44013,30.82137],[-81.44693,30.81039],[-81.45529,30.79093],[-81.46006,30.76991],[-81.46107,30.75368],[-81.45947,30.74198],[-81.44938,30.7156],[-81.44412,30.70971],[-81.54462,30.71264],[-81.60622,30.71814],[-81.6243,30.73619],[-81.63722,30.73383],[-81.71993,30.74463],[-81.73263,30.74993],[-81.74128,30.76268],[-81.75934,30.77138],[-81.80665,30.78968],[-81.82701,30.78893],[-81.84037,30.78638],[-81.86861,30.79275],[-81.90601,30.82218],[-81.99984,30.78835],[-82.02321,30.78199],[-82.05043,30.67627],[-82.0494,30.6553],[-82.03761,30.63327],[-82.01329,30.59567],[-82.00548,30.56349],[-82.01699,30.51936],[-82.0161,30.49735],[-82.05003,30.36249],[-82.05007,30.36234],[-82.12484,30.36656],[-82.16519,30.35804],[-82.17151,30.35987],[-82.18958,30.37621],[-82.20415,30.40133],[-82.21029,30.42459],[-82.20604,30.45551],[-82.21233,30.49956],[-82.21438,30.56696],[-82.21485,30.56701],[-82.24984,30.57086],[-82.2581,30.57156],[-82.28734,30.57346],[-82.37484,30.579],[-82.41891,30.58175],[-82.45954,30.58427],[-82.45979,30.58429],[-82.5249,30.58819],[-82.53623,30.58889],[-82.54506,30.58936],[-82.55316,30.58993],[-82.56548,30.59062],[-82.56924,30.59097],[-82.584,30.5918],[-82.68927,30.59772],[-82.68954,30.59773],[-82.69862,30.59823],[-82.6989,30.59827],[-82.87726,30.60902],[-82.87878,30.60908],[-83.13662,30.62435],[-83.15617,30.6255],[-83.16331,30.62589],[-83.17441,30.62644],[-83.18739,30.62722],[-83.25622,30.63128],[-83.30925,30.63441],[-83.30925,30.63441],[-83.30945,30.63442],[-83.31165,30.63458],[-83.34085,30.63634],[-83.34101,30.63635],[-83.3577,30.63736],[-83.37946,30.63868],[-83.39006,30.63933],[-83.42948,30.64152],[-83.42958,30.6415],[-83.44002,30.64202],[-83.44889,30.64241],[-83.61167,30.65125],[-83.61172,30.65126],[-83.67406,30.65475],[-83.67677,30.6549],[-83.74373,30.6584],[-83.81054,30.66188],[-83.82089,30.66261],[-83.85522,30.66441],[-83.88022,30.66583],[-83.88032,30.66581],[-84.00739,30.6721],[-84.00745,30.6721],[-84.03971,30.67382],[-84.04181,30.67388],[-84.0466,30.6742],[-84.05723,30.6747],[-84.08375,30.67595],[-84.28121,30.68526],[-84.28256,30.68532],[-84.38072,30.68967],[-84.53504,30.69652],[-84.53937,30.69677],[-84.60625,30.69987],[-84.60639,30.69986],[-84.86347,30.71149],[-84.86469,30.71154],[-84.89612,30.75059],[-84.94192,30.88799],[-84.95963,30.91059],[-84.98353,30.93549],[-84.99863,30.97139],[-85.00237,31.00068],[-84.99943,31.01384],[-85.02212,31.07548],[-85.02974,31.09616],[-85.03562,31.10819],[-85.07663,31.15693],[-85.08358,31.15963],[-85.09211,31.16029],[-85.10021,31.16549],[-85.10752,31.18645],[-85.11187,31.25839],[-85.10156,31.28336],[-85.08765,31.30868],[-85.06807,31.42759],[-85.04686,31.51745],[-85.0413,31.54099],[-85.05747,31.61862],[-85.05953,31.62172],[-85.06524,31.62435],[-85.08703,31.64097],[-85.12553,31.69496],[-85.12653,31.71676],[-85.12223,31.72276],[-85.11893,31.73266],[-85.1245,31.76308],[-85.12523,31.76706],[-85.13073,31.77226],[-85.13867,31.78043],[-85.14133,31.78316],[-85.14183,31.83986],[-85.13293,31.88826],[-85.10663,31.91516],[-85.08213,31.94466],[-85.07233,31.96476],[-85.06225,31.99186],[-85.05021,32.0242],[-85.05603,32.06305],[-85.04787,32.14203],[-84.99593,32.18485],[-84.96483,32.19495],[-84.92364,32.23154],[-84.92165,32.23331],[-84.90905,32.26354],[-84.91661,32.28118],[-84.93868,32.30071],[-85.00187,32.32202],[-85.0071,32.32836],[-85.0081,32.33668],[-84.98739,32.3812],[-84.98728,32.38162],[-84.97943,32.41224],[-84.98383,32.44564],[-84.99823,32.46984],[-85.00078,32.50655],[-85.00103,32.51016],[-85.00105,32.51048],[-85.00132,32.51297],[-85.0071,32.52387],[-85.02251,32.54292],[-85.04461,32.5595],[-85.06958,32.58393],[-85.07994,32.60289],[-85.08029,32.60358],[-85.08245,32.60702],[-85.10479,32.64254],[-85.11474,32.68563],[-85.13714,32.74517],[-85.13678,32.74651],[-85.13204,32.76421],[-85.12342,32.77225],[-85.18413,32.87053],[-85.22187,33.05554],[-85.22326,33.06258],[-85.23238,33.10808],[-85.23651,33.12956],[-85.2939,33.42808],[-85.30444,33.48288],[-85.314,33.52981],[-85.31409,33.53022],[-85.31499,33.5359],[-85.3225,33.57417],[-85.33797,33.65311],[-85.36049,33.76796],[-85.36184,33.77395],[-85.38669,33.9017],[-85.39884,33.96413],[-85.42173,34.08082],[-85.45506,34.25069],[-85.45537,34.25285],[-85.45807,34.26574],[-85.45869,34.26944],[-85.4623,34.28637],[-85.50232,34.47395],[-85.50245,34.47453],[-85.50838,34.50121],[-85.51211,34.51825],[-85.5137,34.52413],[-85.51371,34.52417],[-85.51393,34.52519],[-85.52713,34.58868],[-85.53442,34.62379],[-85.54126,34.6567],[-85.54127,34.65678],[-85.55245,34.70814],[-85.55248,34.70832],[-85.58315,34.86037],[-85.59516,34.92417],[-85.59519,34.92433],[-85.60516,34.98468],[-85.47447,34.98397],[-85.36392,34.98338],[-85.30826,34.98438],[-85.30546,34.98448],[-85.30149,34.98448],[-85.2945,34.98465],[-85.27756,34.98497],[-85.27586,34.98497],[-85.26506,34.98508],[-85.25495,34.98517],[-85.23556,34.98548],[-85.23035,34.98548],[-85.22185,34.98548],[-85.22055,34.98557],[-85.21785,34.98568],[-85.21655,34.98568],[-85.18591,34.986],[-85.18055,34.98607],[-85.04518,34.98688],[-85.04505,34.98686],[-84.97986,34.98765],[-84.97697,34.98767],[-84.95562,34.98783],[-84.94442,34.98786],[-84.93931,34.98792],[-84.86131,34.98779],[-84.85803,34.98775],[-84.8318,34.988],[-84.82401,34.98771],[-84.82048,34.98791],[-84.81728,34.98775],[-84.81074,34.98761],[-84.81048,34.98761]]]}},{"type":"Feature","properties":{"name":"North Carolina","role":"mask"},"geometry":{"type":"MultiPolygon","coordinates":[[[[-75.75377,35.19961],[-75.74522,35.20303],[-75.73417,35.20435],[-75.71801,35.20938],[-75.70895,35.21391],[-75.69897,35.22117],[-75.69444,35.22298],[-75.68749,35.23117],[-75.68401,35.23291],[-75.68192,35.23291],[-75.67539,35.22842],[-75.66451,35.22751],[-75.64093,35.23386],[-75.63036,35.23849],[-75.61538,35.24894],[-75.59901,35.25625],[-75.59831,35.26107],[-75.59796,35.2667],[-75.59691,35.26949],[-75.58542,35.26636],[-75.58194,35.26392],[-75.56103,35.26601],[-75.53574,35.27286],[-75.52939,35.28827],[-75.52395,35.3182],[-75.51851,35.33633],[-75.51261,35.36285],[-75.50672,35.38712],[-75.50037,35.4243],[-75.49493,35.45422],[-75.48768,35.48506],[-75.48859,35.49775],[-75.48962,35.50847],[-75.48753,35.52589],[-75.48224,35.53856],[-75.47861,35.55307],[-75.47861,35.59932],[-75.48133,35.6229],[-75.48768,35.64829],[-75.49868,35.66628],[-75.50738,35.68056],[-75.51574,35.72167],[-75.5154,35.73038],[-75.53351,35.77358],[-75.52899,35.77629],[-75.52223,35.77418],[-75.50243,35.74291],[-75.49609,35.72852],[-75.47913,35.67863],[-75.45866,35.5966],[-75.46006,35.58131],[-75.46249,35.55356],[-75.47136,35.47962],[-75.48677,35.39165],[-75.50219,35.32001],[-75.52592,35.23384],[-75.53363,35.22583],[-75.54481,35.22842],[-75.56023,35.23205],[-75.58018,35.23114],[-75.6101,35.22751],[-75.63549,35.22026],[-75.67267,35.20847],[-75.7289,35.19033],[-75.74941,35.18521],[-75.75792,35.18308],[-75.76971,35.18036],[-75.78965,35.1722],[-75.84044,35.15134],[-75.91299,35.1196],[-75.94473,35.10509],[-75.96377,35.0924],[-75.98281,35.08151],[-76.00151,35.06723],[-76.01314,35.06186],[-76.01495,35.06535],[-76.01356,35.06883],[-76.00095,35.08423],[-75.99188,35.0924],[-75.98918,35.10088],[-75.99057,35.10855],[-75.98918,35.11516],[-75.98395,35.12004],[-75.9735,35.12109],[-75.96649,35.11779],[-75.9547,35.1196],[-75.92387,35.13502],[-75.91026,35.14227],[-75.89394,35.15043],[-75.83953,35.1722],[-75.81917,35.17683],[-75.8129,35.17857],[-75.80144,35.18308],[-75.79328,35.18852],[-75.78573,35.19424],[-75.75429,35.1994],[-75.75377,35.19961]]],[[[-75.67525,35.92902],[-75.65954,35.91956],[-75.66294,35.91617],[-75.66202,35.90652],[-75.65348,35.90469],[-75.64852,35.90698],[-75.64512,35.90579],[-75.62767,35.88315],[-75.61683,35.85633],[-75.61977,35.84761],[-75.61436,35.81566],[-75.62045,35.80925],[-75.62423,35.80939],[-75.63898,35.81864],[-75.66789,35.82354],[-75.67505,35.8302],[-75.66009,35.83861],[-75.6606,35.86254],[-75.66336,35.86984],[-75.67283,35.88242],[-75.68142,35.88398],[-75.69767,35.90164],[-75.69687,35.90956],[-75.70216,35.91543],[-75.72378,35.92557],[-75.72725,35.93362],[-75.72681,35.93584],[-75.71827,35.93971],[-75.70532,35.9394],[-75.69115,35.93693],[-75.68636,35.93297],[-75.67525,35.92902]]],[[[-76.4915,36.55036],[-76.31321,36.55055],[-76.3132,36.55055],[-76.12236,36.55062],[-76.03475,36.55065],[-76.02675,36.55055],[-75.95765,36.55055],[-75.95575,36.55055],[-75.95345,36.55055],[-75.95285,36.55055],[-75.92205,36.55065],[-75.91145,36.55065],[-75.90905,36.55065],[-75.90475,36.55065],[-75.90345,36.55065],[-75.89414,36.55075],[-75.89324,36.55065],[-75.89195,36.55075],[-75.88654,36.55075],[-75.88595,36.55075],[-75.88064,36.55075],[-75.87974,36.55075],[-75.86704,36.55075],[-75.8569,36.50015],[-75.83498,36.42265],[-75.81874,36.35758],[-75.79641,36.29035],[-75.77333,36.23153],[-75.77251,36.22944],[-75.75964,36.2047],[-75.73843,36.15428],[-75.71831,36.11367],[-75.69674,36.0775],[-75.65854,36.02043],[-75.56979,35.8633],[-75.5523,35.82217],[-75.53874,35.7974],[-75.53301,35.78738],[-75.53643,35.78012],[-75.54326,35.77969],[-75.54667,35.78738],[-75.55393,35.79933],[-75.56624,35.81307],[-75.57308,35.82887],[-75.58888,35.84493],[-75.60125,35.8673],[-75.61915,35.88941],[-75.61705,35.906],[-75.61755,35.91419],[-75.62011,35.92529],[-75.63121,35.94151],[-75.6489,35.96576],[-75.66838,35.97839],[-75.6718,35.98524],[-75.67891,35.99392],[-75.72366,36.00314],[-75.72708,36.01051],[-75.72656,36.02104],[-75.72208,36.03236],[-75.72261,36.03736],[-75.72682,36.04052],[-75.73709,36.04078],[-75.74051,36.04684],[-75.74156,36.05553],[-75.73946,36.06685],[-75.73972,36.07527],[-75.75025,36.12108],[-75.75048,36.13121],[-75.75223,36.14082],[-75.75572,36.15392],[-75.77581,36.2011],[-75.78368,36.21595],[-75.79329,36.22643],[-75.79437,36.22734],[-75.79853,36.2308],[-75.80369,36.23585],[-75.81159,36.24401],[-75.81185,36.2477],[-75.80817,36.25955],[-75.81448,36.28534],[-75.82291,36.29166],[-75.83396,36.29219],[-75.83791,36.29456],[-75.84528,36.30561],[-75.84134,36.32852],[-75.83186,36.33905],[-75.83159,36.34642],[-75.8362,36.36313],[-75.84305,36.37103],[-75.84726,36.37208],[-75.85147,36.37946],[-75.85252,36.38472],[-75.85147,36.41578],[-75.86411,36.43053],[-75.88043,36.43579],[-75.88832,36.44158],[-75.89148,36.46054],[-75.89991,36.48212],[-75.90728,36.48581],[-75.91307,36.48634],[-75.91728,36.48581],[-75.92413,36.48212],[-75.92733,36.48282],[-75.93547,36.4906],[-75.96007,36.49502],[-75.97254,36.49467],[-76.00371,36.50623],[-76.01926,36.50351],[-76.02363,36.50078],[-76.02922,36.49437],[-76.03195,36.4825],[-76.02022,36.45862],[-76.01234,36.44746],[-76.00391,36.44186],[-75.98987,36.43681],[-75.98005,36.43546],[-75.96228,36.41724],[-75.94068,36.41885],[-75.93645,36.42308],[-75.93269,36.42763],[-75.92837,36.42859],[-75.9236,36.42579],[-75.91641,36.38901],[-75.91695,36.38317],[-75.92351,36.3678],[-75.92333,36.36186],[-75.91776,36.35359],[-75.91533,36.35233],[-75.89529,36.31961],[-75.88821,36.29341],[-75.88215,36.28467],[-75.87272,36.28277],[-75.86493,36.28467],[-75.86052,36.28061],[-75.86182,36.26642],[-75.86736,36.25248],[-75.86415,36.23552],[-75.8587,36.22263],[-75.84884,36.21657],[-75.83837,36.20013],[-75.84122,36.19381],[-75.83992,36.17711],[-75.82391,36.15833],[-75.82253,36.14596],[-75.81344,36.13687],[-75.80038,36.11273],[-75.79164,36.08227],[-75.79397,36.07171],[-75.79978,36.07264],[-75.83608,36.09262],[-75.84779,36.10199],[-75.86779,36.12726],[-75.86632,36.14141],[-75.86738,36.15118],[-75.86983,36.15458],[-75.87503,36.15745],[-75.88742,36.16023],[-75.905,36.16419],[-75.92003,36.16485],[-75.92465,36.16359],[-75.93905,36.16552],[-75.99519,36.17807],[-76.01698,36.18637],[-76.01894,36.18832],[-76.03178,36.18913],[-76.0471,36.18311],[-76.05163,36.18133],[-76.0635,36.17352],[-76.06529,36.17059],[-76.06545,36.16522],[-76.05992,36.15514],[-76.05927,36.14928],[-76.06422,36.14377],[-76.07167,36.14018],[-76.09256,36.13579],[-76.17895,36.12342],[-76.18413,36.12156],[-76.19051,36.11633],[-76.19078,36.11611],[-76.19238,36.11345],[-76.19172,36.1072],[-76.2166,36.09541],[-76.23871,36.09857],[-76.26504,36.10489],[-76.28715,36.10489],[-76.29873,36.1012],[-76.304,36.09278],[-76.32348,36.08488],[-76.3319,36.08383],[-76.33717,36.08646],[-76.35507,36.08646],[-76.41088,36.07803],[-76.41184,36.07538],[-76.41298,36.07224],[-76.42088,36.06066],[-76.44299,36.04276],[-76.45142,36.03907],[-76.45879,36.02802],[-76.45932,36.02433],[-76.49196,36.01801],[-76.51434,36.00564],[-76.54751,36.00985],[-76.5633,36.00985],[-76.57594,36.00617],[-76.58067,36.00722],[-76.58962,36.01564],[-76.60384,36.03302],[-76.61542,36.03776],[-76.63174,36.03828],[-76.65333,36.03512],[-76.66881,36.02097],[-76.67176,36.01828],[-76.68492,36.00985],[-76.68387,36.00037],[-76.67966,35.99195],[-76.68492,35.983],[-76.69545,35.97352],[-76.70019,35.96457],[-76.69756,35.95194],[-76.69238,35.94534],[-76.69177,35.94457],[-76.67387,35.93509],[-76.66755,35.93351],[-76.65702,35.93509],[-76.60805,35.93667],[-76.60384,35.93983],[-76.58699,35.94193],[-76.52855,35.94404],[-76.50749,35.94983],[-76.49696,35.9551],[-76.47379,35.96089],[-76.46063,35.97037],[-76.39824,35.98432],[-76.38982,35.98011],[-76.38192,35.97168],[-76.38139,35.96273],[-76.36521,35.9447],[-76.36297,35.9422],[-76.34033,35.94325],[-76.31769,35.94694],[-76.27241,35.97273],[-76.21397,35.988],[-76.17659,35.99327],[-76.0937,35.993],[-76.08313,35.98985],[-76.06207,35.993],[-76.02416,35.97089],[-76.01469,35.96036],[-76.01416,35.9572],[-76.01995,35.93404],[-76.01153,35.91403],[-76.00468,35.90508],[-75.99939,35.90352],[-75.97783,35.89718],[-75.96625,35.89929],[-75.96256,35.90139],[-75.94782,35.92035],[-75.93413,35.92824],[-75.92992,35.92877],[-75.92729,35.93193],[-75.92676,35.94035],[-75.93782,35.95088],[-75.94361,35.95246],[-75.94677,35.95562],[-75.94729,35.95983],[-75.93834,35.9651],[-75.89938,35.97721],[-75.87937,35.97879],[-75.86042,35.97826],[-75.84989,35.97616],[-75.80935,35.95931],[-75.80514,35.95404],[-75.80093,35.94457],[-75.7825,35.93561],[-75.7825,35.92824],[-75.77881,35.91824],[-75.76881,35.90139],[-75.75196,35.87823],[-75.75301,35.87138],[-75.74828,35.85243],[-75.73459,35.83927],[-75.72722,35.8227],[-75.72669,35.81136],[-75.73261,35.79067],[-75.73823,35.7783],[-75.73936,35.77099],[-75.73542,35.76762],[-75.72474,35.74289],[-75.71912,35.71423],[-75.71519,35.70804],[-75.71294,35.69849],[-75.7135,35.69399],[-75.74161,35.67207],[-75.74217,35.65521],[-75.73711,35.63835],[-75.7298,35.62879],[-75.7298,35.62599],[-75.74723,35.61025],[-75.76296,35.6035],[-75.77814,35.59226],[-75.77533,35.57934],[-75.79725,35.57428],[-75.83715,35.5709],[-75.85177,35.57877],[-75.85964,35.58664],[-75.86987,35.58274],[-75.89504,35.57315],[-75.90685,35.5591],[-75.90853,35.55517],[-75.90853,35.54617],[-75.9164,35.53831],[-75.94563,35.53437],[-75.95013,35.531],[-75.95462,35.5265],[-75.96418,35.51133],[-75.96474,35.50458],[-75.96193,35.49671],[-75.96305,35.4939],[-75.98722,35.48435],[-75.99565,35.47536],[-75.99453,35.46355],[-75.9979,35.45343],[-76.0097,35.44219],[-76.01251,35.43264],[-76.01139,35.42308],[-76.01476,35.4169],[-76.02094,35.41072],[-76.02544,35.40847],[-76.03724,35.41409],[-76.05017,35.41578],[-76.05973,35.41016],[-76.06366,35.4051],[-76.06366,35.39835],[-76.06085,35.39273],[-76.05973,35.38374],[-76.06928,35.37081],[-76.09289,35.36126],[-76.12324,35.35114],[-76.13279,35.34945],[-76.14291,35.33878],[-76.14291,35.32866],[-76.14965,35.32641],[-76.16539,35.32866],[-76.16876,35.33203],[-76.18225,35.33653],[-76.20586,35.33653],[-76.23509,35.35002],[-76.25307,35.35002],[-76.25757,35.3444],[-76.26544,35.34327],[-76.2823,35.34552],[-76.30478,35.35564],[-76.32726,35.35676],[-76.33513,35.35564],[-76.34075,35.34665],[-76.34974,35.34552],[-76.36548,35.34889],[-76.37448,35.35564],[-76.38234,35.35676],[-76.38796,35.35676],[-76.39921,35.34889],[-76.4082,35.35002],[-76.40932,35.35339],[-76.42056,35.35901],[-76.4318,35.36238],[-76.4363,35.37812],[-76.44867,35.38374],[-76.45541,35.38374],[-76.46216,35.38037],[-76.47227,35.37138],[-76.48576,35.37138],[-76.49925,35.38149],[-76.52173,35.39161],[-76.5469,35.38967],[-76.58019,35.38711],[-76.60604,35.38711],[-76.62065,35.37812],[-76.62812,35.36852],[-76.62852,35.368],[-76.61953,35.34552],[-76.60496,35.33775],[-76.60267,35.33653],[-76.58805,35.33316],[-76.55433,35.33203],[-76.54871,35.32866],[-76.50038,35.32191],[-76.48239,35.31405],[-76.47227,35.29494],[-76.46778,35.27695],[-76.46778,35.26121],[-76.47789,35.24323],[-76.48351,35.24098],[-76.49026,35.23311],[-76.49138,35.22075],[-76.49475,35.21288],[-76.50487,35.20726],[-76.52173,35.19264],[-76.53635,35.17466],[-76.53972,35.16679],[-76.53635,35.14993],[-76.53635,35.14206],[-76.54646,35.12295],[-76.5577,35.1162],[-76.56108,35.10833],[-76.56894,35.09709],[-76.57569,35.0926],[-76.58693,35.0926],[-76.59255,35.0836],[-76.59368,35.07574],[-76.60042,35.06787],[-76.61391,35.06112],[-76.6229,35.06112],[-76.6319,35.05663],[-76.63976,35.05101],[-76.64651,35.04201],[-76.64651,35.02515],[-76.64456,35.0198],[-76.64201,35.01279],[-76.62852,34.9948],[-76.58805,34.99143],[-76.5667,34.99817],[-76.53972,35.00042],[-76.50262,35.00717],[-76.49588,35.01166],[-76.49138,35.01728],[-76.49026,35.03414],[-76.48014,35.05213],[-76.47452,35.07012],[-76.4688,35.07534],[-76.46347,35.07641],[-76.43576,35.05794],[-76.43256,35.04906],[-76.43185,35.03095],[-76.42546,35.00146],[-76.40628,34.98726],[-76.39847,34.9766],[-76.39562,34.97518],[-76.33204,34.97092],[-76.32636,34.97624],[-76.32956,34.9869],[-76.35016,35.01674],[-76.36082,35.02597],[-76.36437,35.0313],[-76.36437,35.03485],[-76.35229,35.03308],[-76.31855,35.02065],[-76.29368,35.00963],[-76.28835,35.00573],[-76.28871,34.9972],[-76.29093,34.99428],[-76.29385,34.99195],[-76.29619,34.98669],[-76.29652,34.97624],[-76.29069,34.96906],[-76.27557,34.96097],[-76.27486,34.95387],[-76.2777,34.94001],[-76.28409,34.93682],[-76.31144,34.91018],[-76.31997,34.89775],[-76.33382,34.88212],[-76.34767,34.87217],[-76.36827,34.87288],[-76.37715,34.86755],[-76.37964,34.86258],[-76.39527,34.85548],[-76.40024,34.85548],[-76.41161,34.84127],[-76.41587,34.82564],[-76.41587,34.81356],[-76.40311,34.80615],[-76.39025,34.80557],[-76.38383,34.80791],[-76.37325,34.81712],[-76.36259,34.82422],[-76.34128,34.84269],[-76.32281,34.86116],[-76.27399,34.8973],[-76.23367,34.92593],[-76.19494,34.96275],[-76.16013,34.99116],[-76.11182,35.0345],[-76.09335,35.0487],[-76.06991,35.0757],[-76.06493,35.07712],[-76.04362,35.07002],[-76.03865,35.06504],[-76.03593,35.05899],[-76.073,35.03051],[-76.13727,34.98786],[-76.23309,34.90548],[-76.31021,34.85231],[-76.3868,34.78458],[-76.45045,34.71445],[-76.49407,34.66197],[-76.5242,34.61542],[-76.53595,34.58858],[-76.5552,34.61599],[-76.55381,34.62825],[-76.55042,34.63079],[-76.54934,34.64558],[-76.57947,34.66017],[-76.61872,34.67255],[-76.64294,34.67762],[-76.66264,34.68552],[-76.67631,34.69315],[-76.69375,34.69251],[-76.72697,34.69669],[-76.77004,34.6969],[-76.81745,34.69372],[-76.90626,34.68282],[-76.99026,34.66962],[-77.0311,34.66118],[-77.1128,34.63935],[-77.13684,34.63293],[-77.1697,34.62202],[-77.20916,34.60503],[-77.24099,34.58751],[-77.32252,34.53557],[-77.46292,34.47135],[-77.4918,34.4561],[-77.51796,34.44048],[-77.55694,34.41722],[-77.58232,34.40051],[-77.63503,34.35956],[-77.66167,34.34187],[-77.68723,34.32044],[-77.71332,34.29488],[-77.71592,34.29272],[-77.74014,34.27255],[-77.76402,34.24564],[-77.82921,34.16262],[-77.84179,34.14075],[-77.87033,34.07922],[-77.87438,34.07567],[-77.87816,34.06796],[-77.91554,33.97172],[-77.92793,33.94526],[-77.93731,33.92865],[-77.94657,33.91226],[-77.95688,33.87779],[-77.96017,33.85332],[-77.97061,33.84452],[-78.00677,33.8587],[-78.00997,33.86141],[-78.00943,33.86782],[-78.01869,33.88829],[-78.09543,33.90603],[-78.13695,33.91218],[-78.17772,33.91427],[-78.27615,33.91236],[-78.38396,33.90195],[-78.50904,33.86552],[-78.54109,33.85111],[-78.6505,33.94403],[-78.71014,33.99469],[-78.71221,33.99673],[-79.07117,34.29924],[-79.14324,34.35982],[-79.15148,34.36675],[-79.19074,34.39975],[-79.19204,34.40104],[-79.19898,34.4067],[-79.32325,34.51463],[-79.32485,34.51628],[-79.33133,34.52187],[-79.35832,34.54536],[-79.45003,34.62104],[-79.45977,34.62903],[-79.46132,34.63013],[-79.46175,34.63043],[-79.46872,34.63532],[-79.4716,34.6372],[-79.4793,34.64464],[-79.4902,34.65382],[-79.51904,34.67732],[-79.52027,34.67833],[-79.55445,34.70636],[-79.56169,34.712],[-79.63158,34.76884],[-79.63422,34.77101],[-79.68809,34.8049],[-79.6902,34.80494],[-79.69295,34.80497],[-79.74412,34.80565],[-79.74492,34.80569],[-79.77283,34.80595],[-79.77361,34.80593],[-79.92762,34.80656],[-80.02746,34.80873],[-80.04276,34.8091],[-80.07291,34.80974],[-80.07722,34.80972],[-80.09802,34.81015],[-80.09899,34.81015],[-80.32041,34.81381],[-80.39987,34.81513],[-80.41701,34.81551],[-80.41843,34.81562],[-80.41959,34.81558],[-80.4259,34.81581],[-80.43484,34.81597],[-80.44877,34.81633],[-80.45166,34.8164],[-80.48568,34.81673],[-80.56166,34.81748],[-80.56167,34.81748],[-80.62122,34.81817],[-80.62599,34.81824],[-80.62608,34.81822],[-80.64466,34.81857],[-80.6466,34.81859],[-80.77179,34.81965],[-80.77771,34.8197],[-80.79675,34.82528],[-80.78204,34.93578],[-80.80646,34.96289],[-80.80678,34.96325],[-80.84046,35.00157],[-80.90642,35.07661],[-80.90655,35.07676],[-80.93495,35.10741],[-80.95787,35.09264],[-81.04149,35.0447],[-81.05746,35.06198],[-81.05803,35.07319],[-81.05724,35.08613],[-81.05208,35.09628],[-81.04652,35.10062],[-81.03616,35.10321],[-81.03255,35.1091],[-81.04276,35.14604],[-81.04341,35.14839],[-81.09022,35.15263],[-81.23936,35.15997],[-81.24169,35.16008],[-81.2692,35.16114],[-81.32802,35.1634],[-81.3666,35.16489],[-81.36669,35.16489],[-81.4524,35.16829],[-81.46141,35.16866],[-81.4934,35.16995],[-81.49426,35.16988],[-81.76807,35.18013],[-81.85783,35.18349],[-81.87443,35.18411],[-81.96932,35.18722],[-82.16768,35.1937],[-82.17687,35.19379],[-82.18551,35.19436],[-82.19548,35.19495],[-82.21622,35.19604],[-82.23052,35.19676],[-82.23091,35.19678],[-82.25751,35.19864],[-82.28845,35.19861],[-82.35243,35.2066],[-82.38403,35.21054],[-82.47614,35.17549],[-82.51691,35.16303],[-82.51728,35.16264],[-82.5358,35.1587],[-82.53653,35.15914],[-82.57441,35.14422],[-82.58013,35.14196],[-82.58226,35.14227],[-82.6865,35.12182],[-82.68674,35.11979],[-82.76446,35.06818],[-82.78197,35.06682],[-82.78055,35.06904],[-82.77912,35.07367],[-82.77741,35.07688],[-82.78106,35.08449],[-82.78113,35.08458],[-82.8975,35.05602],[-83.00845,35.02697],[-83.10854,35.00077],[-83.10871,35.00077],[-83.48306,34.99374],[-83.54938,34.99249],[-83.62019,34.99209],[-83.67362,34.98711],[-83.93641,34.98748],[-83.93665,34.98748],[-84.00546,34.98744],[-84.02136,34.98743],[-84.02995,34.98732],[-84.12945,34.9875],[-84.12955,34.9875],[-84.32187,34.98841],[-84.30858,35.09276],[-84.30844,35.09317],[-84.29232,35.20668],[-84.29024,35.22557],[-84.22782,35.26788],[-84.22372,35.26908],[-84.21182,35.26608],[-84.20288,35.25577],[-84.12492,35.24983],[-84.12115,35.25064],[-84.11528,35.25044],[-84.11505,35.24976],[-84.09751,35.24738],[-84.05571,35.26818],[-84.02903,35.29105],[-84.02351,35.29578],[-84.02141,35.30138],[-84.03248,35.32532],[-84.03245,35.32653],[-84.03808,35.34836],[-84.03749,35.34985],[-84.03534,35.35083],[-84.02476,35.3539],[-84.00225,35.42255],[-83.99991,35.4252],[-83.9614,35.4595],[-83.96105,35.46284],[-83.96106,35.46374],[-83.96105,35.46414],[-83.95288,35.46064],[-83.95268,35.46076],[-83.93388,35.47244],[-83.88007,35.51875],[-83.75692,35.5636],[-83.67627,35.57029],[-83.66296,35.56914],[-83.6405,35.56607],[-83.49833,35.56298],[-83.48553,35.5682],[-83.48062,35.57663],[-83.47852,35.5792],[-83.47908,35.58332],[-83.4458,35.6118],[-83.36694,35.63873],[-83.29715,35.65775],[-83.25423,35.69581],[-83.25069,35.70935],[-83.25549,35.71497],[-83.25125,35.71992],[-83.24067,35.72676],[-83.16491,35.75997],[-83.10023,35.77475],[-83.10033,35.7748],[-83.10022,35.77477],[-82.9958,35.77313],[-82.98397,35.77801],[-82.96411,35.7941],[-82.96284,35.79513],[-82.91836,35.84547],[-82.89798,35.88128],[-82.91334,35.92411],[-82.89851,35.9451],[-82.89851,35.9451],[-82.87416,35.9527],[-82.85255,35.94909],[-82.83011,35.93297],[-82.77863,35.97479],[-82.75446,36.0043],[-82.71537,36.02425],[-82.68357,36.0461],[-82.63716,36.0658],[-82.63227,36.06571],[-82.6192,36.05656],[-82.60288,36.03983],[-82.61506,36.00031],[-82.61126,35.97315],[-82.59677,35.96499],[-82.55753,35.95467],[-82.5126,35.97566],[-82.50707,35.97747],[-82.50586,35.97834],[-82.48745,35.99156],[-82.48741,35.99163],[-82.46296,36.00731],[-82.41686,36.07288],[-82.40946,36.08341],[-82.37556,36.10561],[-82.37138,36.10639],[-82.36657,36.10765],[-82.36092,36.11061],[-82.34842,36.11593],[-82.32918,36.11743],[-82.32517,36.11936],[-82.23774,36.13919],[-82.23641,36.13993],[-82.23548,36.14075],[-82.23481,36.14172],[-82.22205,36.15691],[-82.21125,36.15901],[-82.14795,36.14952],[-82.13655,36.12882],[-82.13797,36.11958],[-82.13065,36.10642],[-82.12715,36.10442],[-82.08052,36.10571],[-82.08014,36.10572],[-82.02664,36.13022],[-81.9601,36.22813],[-81.93299,36.26488],[-81.91811,36.28711],[-81.90814,36.30201],[-81.85501,36.33726],[-81.80081,36.35807],[-81.79369,36.36043],[-81.78971,36.34832],[-81.76493,36.33867],[-81.74784,36.33736],[-81.73098,36.34119],[-81.72594,36.34036],[-81.72097,36.3875],[-81.71428,36.45098],[-81.71508,36.45336],[-81.69729,36.48474],[-81.69591,36.49158],[-81.69683,36.49339],[-81.69726,36.49614],[-81.69827,36.49722],[-81.69993,36.49802],[-81.70024,36.50048],[-81.69992,36.50086],[-81.69797,36.50406],[-81.69729,36.50489],[-81.69783,36.50754],[-81.69774,36.50845],[-81.69945,36.5115],[-81.6996,36.51288],[-81.70009,36.51416],[-81.70055,36.51519],[-81.70796,36.53621],[-81.69996,36.53971],[-81.67754,36.58812],[-81.60697,36.58709],[-81.52103,36.58052],[-81.35332,36.57472],[-81.35317,36.57472],[-81.30751,36.57502],[-81.06187,36.56702],[-81.05884,36.56698],[-80.94599,36.5632],[-80.94434,36.56306],[-80.90184,36.56175],[-80.90173,36.56175],[-80.83795,36.55913],[-80.83764,36.55912],[-80.83709,36.55915],[-80.7441,36.56169],[-80.68754,36.56141],[-80.61216,36.55813],[-80.4401,36.55063],[-80.43263,36.5503],[-80.43161,36.55022],[-80.22826,36.54387],[-80.22541,36.54375],[-80.17164,36.54322],[-80.16953,36.54319],[-80.05345,36.54262],[-80.02727,36.5425],[-79.96751,36.5425],[-79.96698,36.54248],[-79.92024,36.54236],[-79.71486,36.54188],[-79.66731,36.54177],[-79.66683,36.54177],[-79.51096,36.54074],[-79.51065,36.54074],[-79.47005,36.54102],[-79.44596,36.5412],[-79.44569,36.54122],[-79.3427,36.54138],[-79.21864,36.54158],[-79.20948,36.54159],[-79.20869,36.54157],[-79.13794,36.54174],[-79.12608,36.54153],[-79.12474,36.54157],[-78.97181,36.54212],[-78.97058,36.54215],[-78.94225,36.54208],[-78.94201,36.54211],[-78.91542,36.54197],[-78.91454,36.54197],[-78.7963,36.54171],[-78.76543,36.54173],[-78.75839,36.54185],[-78.73412,36.5419],[-78.67005,36.54203],[-78.66332,36.54201],[-78.53301,36.541],[-78.52972,36.54098],[-78.47102,36.54231],[-78.47079,36.54232],[-78.45697,36.54247],[-78.4412,36.54269],[-78.43633,36.54267],[-78.32391,36.54381],[-78.24668,36.54434],[-78.24546,36.54441],[-78.13332,36.54385],[-78.13291,36.54381],[-78.0462,36.54417],[-78.03942,36.5442],[-78.03894,36.54417],[-77.89977,36.54466],[-77.88236,36.54474],[-77.87528,36.54475],[-77.76712,36.54475],[-77.29688,36.54475],[-77.24969,36.54474],[-77.1645,36.54633],[-76.91605,36.54382],[-76.916,36.54382],[-76.91538,36.54386],[-76.80708,36.55061],[-76.7813,36.55066],[-76.54169,36.55031],[-76.54139,36.55031],[-76.4915,36.55036]]]]}},{"type":"Feature","properties":{"name":"Tennessee","role":"mask"},"geometry":{"type":"Polygon","coordinates":[[[-83.47211,36.59728],[-83.2763,36.59819],[-83.2503,36.59394],[-83.2499,36.5939],[-83.24893,36.59383],[-83.02836,36.59389],[-83.02725,36.59385],[-82.98509,36.59383],[-82.83043,36.59376],[-82.69578,36.5937],[-82.67988,36.5937],[-82.60918,36.5941],[-82.56107,36.5948],[-82.55977,36.5948],[-82.55429,36.59488],[-82.29381,36.59557],[-82.24327,36.5957],[-82.22665,36.59574],[-82.22572,36.59574],[-82.22344,36.59572],[-82.22171,36.59581],[-82.21101,36.59586],[-82.2105,36.59577],[-82.18849,36.59518],[-82.18074,36.59493],[-82.17725,36.59477],[-82.17398,36.59461],[-82.15073,36.59467],[-82.14857,36.59472],[-82.14607,36.59471],[-81.93414,36.59421],[-81.92264,36.61621],[-81.82674,36.61422],[-81.6469,36.61192],[-81.67754,36.58812],[-81.69996,36.53971],[-81.70796,36.53621],[-81.70055,36.51519],[-81.70009,36.51416],[-81.6996,36.51288],[-81.69945,36.5115],[-81.69774,36.50845],[-81.69783,36.50754],[-81.69729,36.50489],[-81.69797,36.50406],[-81.69992,36.50086],[-81.70024,36.50048],[-81.69993,36.49802],[-81.69827,36.49722],[-81.69726,36.49614],[-81.69683,36.49339],[-81.69591,36.49158],[-81.69729,36.48474],[-81.71508,36.45336],[-81.71428,36.45098],[-81.72097,36.3875],[-81.72594,36.34036],[-81.73098,36.34119],[-81.74784,36.33736],[-81.76493,36.33867],[-81.78971,36.34832],[-81.79369,36.36043],[-81.80081,36.35807],[-81.85501,36.33726],[-81.90814,36.30201],[-81.91811,36.28711],[-81.93299,36.26488],[-81.9601,36.22813],[-82.02664,36.13022],[-82.08014,36.10572],[-82.08052,36.10571],[-82.12715,36.10442],[-82.13065,36.10642],[-82.13797,36.11958],[-82.13655,36.12882],[-82.14795,36.14952],[-82.21125,36.15901],[-82.22205,36.15691],[-82.23481,36.14172],[-82.23548,36.14075],[-82.23641,36.13993],[-82.23774,36.13919],[-82.32517,36.11936],[-82.32918,36.11743],[-82.34842,36.11593],[-82.36092,36.11061],[-82.36657,36.10765],[-82.37138,36.10639],[-82.37556,36.10561],[-82.40946,36.08341],[-82.41686,36.07288],[-82.46296,36.00731],[-82.48741,35.99163],[-82.48745,35.99156],[-82.50586,35.97834],[-82.50707,35.97747],[-82.5126,35.97566],[-82.55753,35.95467],[-82.59677,35.96499],[-82.61126,35.97315],[-82.61506,36.00031],[-82.60288,36.03983],[-82.6192,36.05656],[-82.63227,36.06571],[-82.63716,36.0658],[-82.68357,36.0461],[-82.71537,36.02425],[-82.75446,36.0043],[-82.77863,35.97479],[-82.83011,35.93297],[-82.85255,35.94909],[-82.87416,35.9527],[-82.89851,35.9451],[-82.89851,35.9451],[-82.91334,35.92411],[-82.89798,35.88128],[-82.91836,35.84547],[-82.96284,35.79513],[-82.96411,35.7941],[-82.98397,35.77801],[-82.9958,35.77313],[-83.10022,35.77477],[-83.10033,35.7748],[-83.10023,35.77475],[-83.16491,35.75997],[-83.24067,35.72676],[-83.25125,35.71992],[-83.25549,35.71497],[-83.25069,35.70935],[-83.25423,35.69581],[-83.29715,35.65775],[-83.36694,35.63873],[-83.4458,35.6118],[-83.47908,35.58332],[-83.47852,35.5792],[-83.48062,35.57663],[-83.48553,35.5682],[-83.49833,35.56298],[-83.6405,35.56607],[-83.66296,35.56914],[-83.67627,35.57029],[-83.75692,35.5636],[-83.88007,35.51875],[-83.93388,35.47244],[-83.95268,35.46076],[-83.95288,35.46064],[-83.96105,35.46414],[-83.96106,35.46374],[-83.96105,35.46284],[-83.9614,35.4595],[-83.99991,35.4252],[-84.00225,35.42255],[-84.02476,35.3539],[-84.03534,35.35083],[-84.03749,35.34985],[-84.03808,35.34836],[-84.03245,35.32653],[-84.03248,35.32532],[-84.02141,35.30138],[-84.02351,35.29578],[-84.02903,35.29105],[-84.05571,35.26818],[-84.09751,35.24738],[-84.11505,35.24976],[-84.11528,35.25044],[-84.12115,35.25064],[-84.12492,35.24983],[-84.20288,35.25577],[-84.21182,35.26608],[-84.22372,35.26908],[-84.22782,35.26788],[-84.29024,35.22557],[-84.29232,35.20668],[-84.30844,35.09317],[-84.30858,35.09276],[-84.32187,34.98841],[-84.39393,34.98807],[-84.3949,34.98803],[-84.50905,34.98803],[-84.50989,34.98801],[-84.62148,34.98833],[-84.72743,34.98802],[-84.73102,34.98809],[-84.77585,34.9878],[-84.80813,34.98759],[-84.80918,34.98757],[-84.81048,34.98761],[-84.81074,34.98761],[-84.81728,34.98775],[-84.82048,34.98791],[-84.82401,34.98771],[-84.8318,34.988],[-84.85803,34.98775],[-84.86131,34.98779],[-84.93931,34.98792],[-84.94442,34.98786],[-84.95562,34.98783],[-84.97697,34.98767],[-84.97986,34.98765],[-85.04505,34.98686],[-85.04518,34.98688],[-85.18055,34.98607],[-85.18591,34.986],[-85.21655,34.98568],[-85.21785,34.98568],[-85.22055,34.98557],[-85.22185,34.98548],[-85.23035,34.98548],[-85.23556,34.98548],[-85.25495,34.98517],[-85.26506,34.98508],[-85.27586,34.98497],[-85.27756,34.98497],[-85.2945,34.98465],[-85.30149,34.98448],[-85.30546,34.98448],[-85.30826,34.98438],[-85.36392,34.98338],[-85.47447,34.98397],[-85.60516,34.98468],[-85.82441,34.98814],[-85.82872,34.98817],[-85.86393,34.98838],[-86.31127,34.9911],[-86.31876,34.99115],[-86.3972,34.99166],[-86.43393,34.99108],[-86.4678,34.99069],[-86.52849,34.99068],[-86.55586,34.99097],[-86.57122,34.99101],[-86.58896,34.9912],[-86.60004,34.99124],[-86.64121,34.99174],[-86.65961,34.99179],[-86.67085,34.992],[-86.67436,34.992],[-86.67673,34.99207],[-86.67762,34.99207],[-86.78363,34.99193],[-86.78365,34.99193],[-86.82066,34.99176],[-86.83631,34.99176],[-86.83637,34.99176],[-86.84647,34.99186],[-86.84979,34.99192],[-86.86215,34.99196],[-86.96712,34.9944],[-86.97024,34.99455],[-86.97261,34.99461],[-86.97441,34.99451],[-87.00001,34.99512],[-87.01117,34.99516],[-87.21076,34.99902],[-87.21668,34.99915],[-87.22405,34.99933],[-87.23054,34.99948],[-87.27001,35.00039],[-87.29918,35.00091],[-87.34925,35.00166],[-87.35928,35.00182],[-87.38107,35.00212],[-87.39131,35.00237],[-87.4174,35.00267],[-87.42154,35.00268],[-87.42861,35.00279],[-87.60603,35.00334],[-87.66412,35.00352],[-87.6714,35.00354],[-87.69683,35.00385],[-87.70054,35.00399],[-87.70232,35.00395],[-87.70949,35.00409],[-87.75889,35.00471],[-87.7676,35.00478],[-87.77359,35.00495],[-87.85189,35.00566],[-87.85341,35.00558],[-87.85353,35.00554],[-87.87263,35.00557],[-87.87774,35.00551],[-87.87797,35.00547],[-87.98492,35.00626],[-88.18245,35.00771],[-88.20006,34.99563],[-88.25383,34.99555],[-88.25811,34.99546],[-88.36353,34.99559],[-88.38051,34.99561],[-88.4698,34.99605],[-88.46988,34.99603],[-88.78661,34.99525],[-88.82305,34.99516],[-89.01713,34.99465],[-89.139,34.99433],[-89.13914,34.99431],[-89.19829,34.99448],[-89.35268,34.99442],[-89.49374,34.99436],[-89.51115,34.99475],[-89.64428,34.99529],[-89.72432,34.99476],[-89.79519,34.99429],[-89.84849,34.99419],[-89.88336,34.99426],[-89.8934,34.99436],[-90.3093,34.99569],[-90.30988,35.00975],[-90.2956,35.04009],[-90.19386,35.06165],[-90.17459,35.11668],[-90.16006,35.12883],[-90.14279,35.13509],[-90.10939,35.11889],[-90.10059,35.11669],[-90.09061,35.11829],[-90.08342,35.12167],[-90.06539,35.13769],[-90.06461,35.14062],[-90.07335,35.211],[-90.07426,35.21832],[-90.07741,35.22548],[-90.09795,35.24998],[-90.10509,35.25429],[-90.11649,35.25579],[-90.14039,35.25229],[-90.15209,35.25599],[-90.15887,35.26258],[-90.16659,35.27459],[-90.16887,35.282],[-90.16381,35.29612],[-90.15891,35.30064],[-90.15339,35.30259],[-90.11489,35.30389],[-90.08669,35.36993],[-90.08961,35.37984],[-90.09359,35.39333],[-90.13551,35.37667],[-90.14363,35.37474],[-90.16625,35.37474],[-90.17834,35.38209],[-90.17927,35.38519],[-90.169,35.42185],[-90.15239,35.43679],[-90.10772,35.47693],[-90.07442,35.47252],[-90.07215,35.47075],[-90.0678,35.46622],[-90.05907,35.45789],[-90.04768,35.45925],[-90.03401,35.46882],[-90.03498,35.48071],[-90.03974,35.54804],[-90.03294,35.55344],[-90.02862,35.55525],[-90.01731,35.556],[-89.95735,35.52868],[-89.93357,35.5333],[-89.9098,35.53791],[-89.88493,35.65511],[-89.89051,35.65241],[-89.90615,35.65114],[-89.92275,35.65529],[-89.93738,35.66571],[-89.95575,35.69062],[-89.95888,35.72383],[-89.95625,35.73339],[-89.95028,35.73849],[-89.91,35.7594],[-89.90554,35.75906],[-89.88902,35.75056],[-89.86563,35.74658],[-89.82122,35.75672],[-89.70387,35.82028],[-89.70104,35.82823],[-89.70288,35.83415],[-89.70926,35.83891],[-89.72952,35.84763],[-89.74942,35.85296],[-89.76941,35.86156],[-89.77247,35.8651],[-89.77356,35.8717],[-89.77173,35.87972],[-89.76569,35.8913],[-89.75604,35.89682],[-89.73361,35.9047],[-89.71493,35.90625],[-89.68814,35.89695],[-89.68794,35.90538],[-89.68692,35.94772],[-89.71997,35.97462],[-89.7331,36.00061],[-89.70693,36.00098],[-89.69031,36.02484],[-89.68725,36.03405],[-89.68444,36.05172],[-89.62423,36.10863],[-89.60194,36.11947],[-89.594,36.12719],[-89.59161,36.1441],[-89.5944,36.15546],[-89.607,36.17118],[-89.61823,36.17997],[-89.62945,36.18538],[-89.69982,36.24838],[-89.69131,36.25208],[-89.67805,36.24828],[-89.60237,36.23811],[-89.58956,36.23912],[-89.54162,36.24789],[-89.53475,36.25258],[-89.53553,36.27054],[-89.53949,36.27737],[-89.5448,36.28046],[-89.55429,36.27775],[-89.57849,36.28832],[-89.61182,36.30909],[-89.62026,36.32301],[-89.6198,36.32955],[-89.61584,36.33608],[-89.61069,36.34044],[-89.60567,36.34223],[-89.58164,36.34236],[-89.56044,36.33775],[-89.54501,36.33681],[-89.53182,36.33925],[-89.519,36.3486],[-89.51318,36.3599],[-89.50956,36.37506],[-89.5195,36.47542],[-89.52267,36.4813],[-89.5391,36.4982],[-89.49804,36.49789],[-89.49254,36.49777],[-89.48511,36.49769],[-89.49349,36.4787],[-89.4932,36.47012],[-89.48622,36.46162],[-89.47172,36.457],[-89.46044,36.45814],[-89.44847,36.46442],[-89.42931,36.48188],[-89.41729,36.49903],[-89.40391,36.49914],[-89.38179,36.50006],[-89.38008,36.50042],[-89.35659,36.5022],[-89.34606,36.50321],[-89.34605,36.50321],[-89.2823,36.50678],[-89.27909,36.50651],[-89.21141,36.50563],[-89.16343,36.50453],[-89.16322,36.50452],[-89.1198,36.50365],[-89.11754,36.5036],[-89.09015,36.50339],[-89.07212,36.50325],[-89.05887,36.50316],[-89.03465,36.50296],[-89.01044,36.50271],[-89.00683,36.50268],[-89.00006,36.50263],[-88.96447,36.50219],[-88.87472,36.50245],[-88.83487,36.50291],[-88.83463,36.50291],[-88.8273,36.50285],[-88.82701,36.50285],[-88.81677,36.50281],[-88.79959,36.50276],[-88.74752,36.50283],[-88.71525,36.50266],[-88.66113,36.50224],[-88.57728,36.50194],[-88.54519,36.50181],[-88.51643,36.50143],[-88.51635,36.50143],[-88.51227,36.50151],[-88.51192,36.50146],[-88.48921,36.50107],[-88.48907,36.50107],[-88.47256,36.50103],[-88.45254,36.50087],[-88.45016,36.5011],[-88.41636,36.50076],[-88.3308,36.50053],[-88.3259,36.50048],[-88.32079,36.50043],[-88.05329,36.49713],[-88.05321,36.49713],[-88.03948,36.51041],[-88.03782,36.51385],[-88.03249,36.54066],[-88.03562,36.56174],[-88.04513,36.60294],[-88.0556,36.63571],[-88.06821,36.65975],[-88.07053,36.67812],[-88.01179,36.67703],[-87.84957,36.6637],[-87.8532,36.63325],[-87.69419,36.63684],[-87.64115,36.63804],[-87.64115,36.63804],[-87.56493,36.63911],[-87.56305,36.63911],[-87.43651,36.64075],[-87.42501,36.64105],[-87.41431,36.64105],[-87.3478,36.64144],[-87.34413,36.64151],[-87.33598,36.64154],[-87.28151,36.64176],[-87.2784,36.64172],[-87.24765,36.64184],[-87.23104,36.64189],[-87.23053,36.64189],[-87.11498,36.64241],[-87.11498,36.64241],[-87.06084,36.64341],[-86.90658,36.64625],[-86.90602,36.6463],[-86.85427,36.64688],[-86.83316,36.64721],[-86.8184,36.64764],[-86.81619,36.64772],[-86.81304,36.64765],[-86.76329,36.64891],[-86.75892,36.64902],[-86.60639,36.65211],[-86.60504,36.65212],[-86.56425,36.63352],[-86.56414,36.63347],[-86.4735,36.65167],[-86.47341,36.65168],[-86.47219,36.65176],[-86.4685,36.65184],[-86.41139,36.65055],[-86.33305,36.64878],[-86.22215,36.64089],[-86.21908,36.64082],[-86.21641,36.64059],[-86.21618,36.64053],[-86.20547,36.63978],[-86.20486,36.63974],[-86.19757,36.63936],[-86.08194,36.63385],[-86.08067,36.63394],[-86.03837,36.6308],[-86.03314,36.63041],[-86.03277,36.63037],[-85.97642,36.6284],[-85.78865,36.62185],[-85.78861,36.62185],[-85.55202,36.61578],[-85.55148,36.61573],[-85.50861,36.61502],[-85.47134,36.61638],[-85.43642,36.61819],[-85.29599,36.62549],[-85.27629,36.62651],[-85.27628,36.62651],[-85.09613,36.62248],[-85.08642,36.62191],[-84.97489,36.61433],[-84.85974,36.6065],[-84.85976,36.60643],[-84.7854,36.60337],[-84.78534,36.60337],[-84.77845,36.60322],[-84.26133,36.59198],[-84.22729,36.59168],[-83.98784,36.5896],[-83.98761,36.5896],[-83.93067,36.58825],[-83.69071,36.58258],[-83.67711,36.59658],[-83.67541,36.60081],[-83.67014,36.6008],[-83.67013,36.60076],[-83.47211,36.59728]]]}}]}